{"type": "FeatureCollection", "features": [ {"type": "Feature", "properties": {"norad_id": 33651, "name": "FENGYUN 1C DEB", "group": "fengyun-1c-debris", "lat": -61.4158462207861, "lon": -172.72517157342318, "alt_km": 912.5113015033712, "timestamp": "2025-12-03T17:47:51.004185+00:00", "meta": {"OBJECT_NAME": "FENGYUN 1C DEB", "OBJECT_ID": "1999-025DEL", "EPOCH": "2025-12-01T08:52:27.581952", "MEAN_MOTION": 14.20342984, "ECCENTRICITY": 0.01180914, "INCLINATION": 98.6582, "RA_OF_ASC_NODE": 21.1922, "ARG_OF_PERICENTER": 86.6093, "MEAN_ANOMALY": 274.8584, "EPHEMERIS_TYPE": 0, "CLASSIFICATION_TYPE": "U", "NORAD_CAT_ID": 33651, "ELEMENT_SET_NO": 999, "REV_AT_EPOCH": 64110, "BSTAR": 0.00018405699, "MEAN_MOTION_DOT": 3.8e-06, "MEAN_MOTION_DDOT": 0}, "tle": {"line1": "1 33651U 99025DEL 25335.36976368  .00000380  00000+0  18406-3 0  9991", "line2": "2 33651  98.6582  21.1922 0118091  86.6093 274.8584 14.20342984641104"}}, "geometry": {"type": "Point", "coordinates": [-172.72517157342318, -61.4158462207861]}}, {"type": "Feature", "properties": {"norad_id": 33655, "name": "FENGYUN 1C DEB", "group": "fengyun-1c-debris", "lat": -36.774161735738595, "lon": 48.519429429310286, "alt_km": 568.4270842851911, "timestamp": "2025-12-03T17:47:51.004195+00:00", "meta": {"OBJECT_NAME": "FENGYUN 1C DEB", "OBJECT_ID": "1999-025DEQ", "EPOCH": "2025-12-02T03:27:53.958528", "MEAN_MOTION": 14.97046756, "ECCENTRICITY": 0.00483741, "INCLINATION": 98.8068, "RA_OF_ASC_NODE": 40.0679, "ARG_OF_PERICENTER": 34.219, "MEAN_ANOMALY": 326.2129, "EPHEMERIS_TYPE": 0, "CLASSIFICATION_TYPE": "U", "NORAD_CAT_ID": 33655, "ELEMENT_SET_NO": 999, "REV_AT_EPOCH": 96399, "BSTAR": 0.00225965, "MEAN_MOTION_DOT": 0.00026675, "MEAN_MOTION_DDOT": 0}, "tle": {"line1": "1 33655U 99025DEQ 25336.14437452  .00026675  00000+0  22597-2 0  9998", "line2": "2 33655  98.8068  40.0679 0048374  34.2190 326.2129 14.97046756963994"}}, "geometry": {"type": "Point", "coordinates": [48.519429429310286, -36.774161735738595]}}, {"type": "Feature", "properties": {"norad_id": 33656, "name": "FENGYUN 1C DEB", "group": "fengyun-1c-debris", "lat": -21.89539867477002, "lon": -25.481676984265324, "alt_km": 808.7537138930084, "timestamp": "2025-12-03T17:47:51.004205+00:00", "meta": {"OBJECT_NAME": "FENGYUN 1C DEB", "OBJECT_ID": "1999-025DER", "EPOCH": "2025-12-01T05:08:12.514272", "MEAN_MOTION": 14.22694091, "ECCENTRICITY": 0.0090964, "INCLINATION": 98.5782, "RA_OF_ASC_NODE": 328.5792, "ARG_OF_PERICENTER": 64.5541, "MEAN_ANOMALY": 296.5016, "EPHEMERIS_TYPE": 0, "CLASSIFICATION_TYPE": "U", "NORAD_CAT_ID": 33656, "ELEMENT_SET_NO": 999, "REV_AT_EPOCH": 62545, "BSTAR": 0.00046353, "MEAN_MOTION_DOT": 1.041e-05, "MEAN_MOTION_DDOT": 0}, "tle": {"line1": "1 33656U 99025DER 25335.21403373  .00001041  00000+0  46353-3 0  9998", "line2": "2 33656  98.5782 328.5792 0090964  64.5541 296.5016 14.22694091625452"}}, "geometry": {"type": "Point", "coordinates": [-25.481676984265324, -21.89539867477002]}}, {"type": "Feature", "properties": {"norad_id": 33658, "name": "FENGYUN 1C DEB", "group": "fengyun-1c-debris", "lat": -22.03643766354502, "lon": -52.81259812791736, "alt_km": 822.2863790536821, "timestamp": "2025-12-03T17:47:51.004215+00:00", "meta": {"OBJECT_NAME": "FENGYUN 1C DEB", "OBJECT_ID": "1999-025DET", "EPOCH": "2025-12-02T16:07:19.695936", "MEAN_MOTION": 13.62248134, "ECCENTRICITY": 0.02842159, "INCLINATION": 99.5636, "RA_OF_ASC_NODE": 130.05, "ARG_OF_PERICENTER": 206.7255, "MEAN_ANOMALY": 151.8999, "EPHEMERIS_TYPE": 0, "CLASSIFICATION_TYPE": "U", "NORAD_CAT_ID": 33658, "ELEMENT_SET_NO": 999, "REV_AT_EPOCH": 58002, "BSTAR": 0.0047533349, "MEAN_MOTION_DOT": 4.778e-05, "MEAN_MOTION_DDOT": 0}, "tle": {"line1": "1 33658U 99025DET 25336.67175574  .00004778  00000+0  47533-2 0  9990", "line2": "2 33658  99.5636 130.0500 0284215 206.7255 151.8999 13.62248134580024"}}, "geometry": {"type": "Point", "coordinates": [-52.81259812791736, -22.03643766354502]}}, {"type": "Feature", "properties": {"norad_id": 33660, "name": "FENGYUN 1C DEB", "group": "fengyun-1c-debris", "lat": -74.84018544549822, "lon": -76.26576293630286, "alt_km": 850.9506308725431, "timestamp": "2025-12-03T17:47:51.004225+00:00", "meta": {"OBJECT_NAME": "FENGYUN 1C DEB", "OBJECT_ID": "1999-025DEV", "EPOCH": "2025-12-02T13:26:46.254048", "MEAN_MOTION": 13.91747506, "ECCENTRICITY": 0.01100929, "INCLINATION": 98.6559, "RA_OF_ASC_NODE": 248.4221, "ARG_OF_PERICENTER": 274.4224, "MEAN_ANOMALY": 212.415, "EPHEMERIS_TYPE": 0, "CLASSIFICATION_TYPE": "U", "NORAD_CAT_ID": 33660, "ELEMENT_SET_NO": 999, "REV_AT_EPOCH": 90922, "BSTAR": 0.00075057191, "MEAN_MOTION_DOT": 9.61e-06, "MEAN_MOTION_DDOT": 0}, "tle": {"line1": "1 33660U 99025DEV 25336.56025757  .00000961  00000+0  75057-3 0  9991", "line2": "2 33660  98.6559 248.4221 0110092 274.4224 212.4150 13.91747506909223"}}, "geometry": {"type": "Point", "coordinates": [-76.26576293630286, -74.84018544549822]}}, {"type": "Feature", "properties": {"norad_id": 33663, "name": "FENGYUN 1C DEB", "group": "fengyun-1c-debris", "lat": -78.72094633871804, "lon": 96.62685753692382, "alt_km": 739.9624917953288, "timestamp": "2025-12-03T17:47:51.004234+00:00", "meta": {"OBJECT_NAME": "FENGYUN 1C DEB", "OBJECT_ID": "1999-025DEY", "EPOCH": "2025-12-03T05:05:31.392960", "MEAN_MOTION": 14.61049241, "ECCENTRICITY": 0.0083574, "INCLINATION": 98.8831, "RA_OF_ASC_NODE": 327.7042, "ARG_OF_PERICENTER": 41.7093, "MEAN_ANOMALY": 319.0438, "EPHEMERIS_TYPE": 0, "CLASSIFICATION_TYPE": "U", "NORAD_CAT_ID": 33663, "ELEMENT_SET_NO": 999, "REV_AT_EPOCH": 64063, "BSTAR": 0.0084154, "MEAN_MOTION_DOT": 0.00043621, "MEAN_MOTION_DDOT": 0}, "tle": {"line1": "1 33663U 99025DEY 25337.21216890  .00043621  00000+0  84154-2 0  9994", "line2": "2 33663  98.8831 327.7042 0083574  41.7093 319.0438 14.61049241640635"}}, "geometry": {"type": "Point", "coordinates": [96.62685753692382, -78.72094633871804]}}, {"type": "Feature", "properties": {"norad_id": 33664, "name": "FENGYUN 1C DEB", "group": "fengyun-1c-debris", "lat": -31.80926057990063, "lon": -58.58874446418827, "alt_km": 985.1637792617412, "timestamp": "2025-12-03T17:47:51.004245+00:00", "meta": {"OBJECT_NAME": "FENGYUN 1C DEB", "OBJECT_ID": "1999-025DEZ", "EPOCH": "2025-12-02T03:10:30.773568", "MEAN_MOTION": 14.03976749, "ECCENTRICITY": 0.01640632, "INCLINATION": 98.7018, "RA_OF_ASC_NODE": 125.3204, "ARG_OF_PERICENTER": 69.7897, "MEAN_ANOMALY": 292.0828, "EPHEMERIS_TYPE": 0, "CLASSIFICATION_TYPE": "U", "NORAD_CAT_ID": 33664, "ELEMENT_SET_NO": 999, "REV_AT_EPOCH": 90590, "BSTAR": 0.00053085125, "MEAN_MOTION_DOT": 9.05e-06, "MEAN_MOTION_DDOT": 0}, "tle": {"line1": "1 33664U 99025DEZ 25336.13230062  .00000905  00000+0  53085-3 0  9990", "line2": "2 33664  98.7018 125.3204 0164063  69.7897 292.0828 14.03976749905904"}}, "geometry": {"type": "Point", "coordinates": [-58.58874446418827, -31.80926057990063]}}, {"type": "Feature", "properties": {"norad_id": 33665, "name": "FENGYUN 1C DEB", "group": "fengyun-1c-debris", "lat": -26.910121006546927, "lon": 99.91729887977372, "alt_km": 1151.3797570077404, "timestamp": "2025-12-03T17:47:51.004255+00:00", "meta": {"OBJECT_NAME": "FENGYUN 1C DEB", "OBJECT_ID": "1999-025DFA", "EPOCH": "2025-11-30T14:39:07.562016", "MEAN_MOTION": 14.03506601, "ECCENTRICITY": 0.0456092, "INCLINATION": 99.0223, "RA_OF_ASC_NODE": 92.1738, "ARG_OF_PERICENTER": 126.0265, "MEAN_ANOMALY": 238.4072, "EPHEMERIS_TYPE": 0, "CLASSIFICATION_TYPE": "U", "NORAD_CAT_ID": 33665, "ELEMENT_SET_NO": 999, "REV_AT_EPOCH": 92421, "BSTAR": 0.0013543, "MEAN_MOTION_DOT": 5.359e-05, "MEAN_MOTION_DDOT": 0}, "tle": {"line1": "1 33665U 99025DFA 25334.61050419  .00005359  00000+0  13543-2 0  9990", "line2": "2 33665  99.0223  92.1738 0456092 126.0265 238.4072 14.03506601924218"}}, "geometry": {"type": "Point", "coordinates": [99.91729887977372, -26.910121006546927]}}, {"type": "Feature", "properties": {"norad_id": 33673, "name": "FENGYUN 1C DEB", "group": "fengyun-1c-debris", "lat": -9.796593523234764, "lon": -157.20197086975452, "alt_km": 872.409152404347, "timestamp": "2025-12-03T17:47:51.004265+00:00", "meta": {"OBJECT_NAME": "FENGYUN 1C DEB", "OBJECT_ID": "1999-025DFJ", "EPOCH": "2025-12-03T10:04:40.345824", "MEAN_MOTION": 13.95517458, "ECCENTRICITY": 0.0107659, "INCLINATION": 99.3442, "RA_OF_ASC_NODE": 24.1012, "ARG_OF_PERICENTER": 249.7196, "MEAN_ANOMALY": 126.0879, "EPHEMERIS_TYPE": 0, "CLASSIFICATION_TYPE": "U", "NORAD_CAT_ID": 33673, "ELEMENT_SET_NO": 999, "REV_AT_EPOCH": 89772, "BSTAR": 0.00099874, "MEAN_MOTION_DOT": 1.377e-05, "MEAN_MOTION_DDOT": 0}, "tle": {"line1": "1 33673U 99025DFJ 25337.41991141  .00001377  00000+0  99874-3 0  9994", "line2": "2 33673  99.3442  24.1012 0107659 249.7196 126.0879 13.95517458897725"}}, "geometry": {"type": "Point", "coordinates": [-157.20197086975452, -9.796593523234764]}}, {"type": "Feature", "properties": {"norad_id": 33674, "name": "FENGYUN 1C DEB", "group": "fengyun-1c-debris", "lat": -43.56314895053646, "lon": 36.80891479443377, "alt_km": 883.9597187929166, "timestamp": "2025-12-03T17:47:51.004275+00:00", "meta": {"OBJECT_NAME": "FENGYUN 1C DEB", "OBJECT_ID": "1999-025DFK", "EPOCH": "2025-12-02T01:53:41.579808", "MEAN_MOTION": 13.76813989, "ECCENTRICITY": 0.02100329, "INCLINATION": 98.6065, "RA_OF_ASC_NODE": 27.0218, "ARG_OF_PERICENTER": 268.727, "MEAN_ANOMALY": 88.9815, "EPHEMERIS_TYPE": 0, "CLASSIFICATION_TYPE": "U", "NORAD_CAT_ID": 33674, "ELEMENT_SET_NO": 999, "REV_AT_EPOCH": 88218, "BSTAR": 0.0021724399, "MEAN_MOTION_DOT": 2.475e-05, "MEAN_MOTION_DDOT": 0}, "tle": {"line1": "1 33674U 99025DFK 25336.07895347  .00002475  00000+0  21724-2 0  9995", "line2": "2 33674  98.6065  27.0218 0210032 268.7270  88.9815 13.76813989882180"}}, "geometry": {"type": "Point", "coordinates": [36.80891479443377, -43.56314895053646]}}]}